#aV2023 10 18  0  0  0.00000000     288 DD+AD WGS84 FIT  NGA
## 2284 259200.00000000   300.00000000 60235 0.0000000000000
+   32     1  2  3  4  5  6  7  8  9 10 11 12 13 14 15 16 17
+         18 19 20 21 22 23 24 25 26 27 28 29 30 31 32  0  0
+          0  0  0  0  0  0  0  0  0  0  0  0  0  0  0  0  0
+          0  0  0  0  0  0  0  0  0  0  0  0  0  0  0  0  0
+          0  0  0  0  0  0  0  0  0  0  0  0  0  0  0  0  0
++         2  2  2  2  2  2  2  2  2  2  2  2  2  2  2  2  2
++         2  2  2  2  2  2  2  2  2  2  2  2  2  2  2  0  0
++         0  0  0  0  0  0  0  0  0  0  0  0  0  0  0  0  0
++         0  0  0  0  0  0  0  0  0  0  0  0  0  0  0  0  0
++         0  0  0  0  0  0  0  0  0  0  0  0  0  0  0  0  0
%c cc cc ccc ccc cccc cccc cccc cccc ccccc ccccc ccccc ccccc
%c cc cc ccc ccc cccc cccc cccc cccc ccccc ccccc ccccc ccccc
%f  0.0000000  0.000000000  0.00000000000  0.000000000000000
%f  0.0000000  0.000000000  0.00000000000  0.000000000000000
%i    0    0    0    0      0      0      0      0         0
%i    0    0    0    0      0      0      0      0         0
/*      NGA, ST. LOUIS,MO.                                  
/*   EPHEMERIS COMPUTED FROM 2 DAYS OF DATA                 
/*   EPOCHA v8 SMOOTHER                                     
/*   G2139 IERS2010 SATIGS SATAPC                           
*  2023 10 18 16 25  0.00000000
P  1 -13419.746238  13649.372206  17915.367926    163.602933                    
V  1   1374.378874 -23509.765298  18913.936728     -0.003712                    
P  2 -14814.078544   7035.465302  21361.931792   -540.442740                    
V  2   -325.657648 -25988.551073   8718.621298      0.047910                    
P  3 -23197.730427  12541.653100  -2765.357929    -71.155631                    
V  3  -3961.481735   -662.992621  32016.132722      0.233035                    
P  4 -15498.340885   6222.057251 -20672.964973    188.025636                    
V  4 -20302.957877 -16627.799794  10088.434293      0.107676                    
P  5  23890.182119  -3460.863163 -11367.840990   -146.986333                    
V  5 -11601.041074   8306.722988 -27254.246114     -0.014512                    
P  6   6509.110815  21866.752901 -13454.402017    527.717948                    
V  6  -3432.816595  16908.639001  25781.315961     -0.085715                    
P  7  -5476.640455  25307.891317  -4146.341382     37.028096                    
V  7  -2951.251675  -6252.840842 -31244.120399     -0.101726                    
P  8 -21907.572322  -1856.812962  15110.468155   -147.754832                    
V  8 -14869.376125 -12248.917450 -22545.291585     -0.018582                    
P  9  -5919.929310  14399.651783 -21603.513737    -28.823016                    
V  9 -22736.503742 -15009.410833  -3843.369325      0.108359                    
P 10  -3320.832015 -14698.123208  22030.225298    -57.847235                    
V 10  25180.770387 -11060.971546  -3933.581715     -0.015213                    
P 11  12773.174225  10878.742243 -20583.842205   -420.827122                    
V 11  -4667.332211  25743.181856  10647.292872     -0.172076                    
P 12  24675.158982  -9712.010574   -665.878791   -437.265423                    
V 12   1454.904489   2413.284584  31866.351527     -0.042006                    
P 13  21852.230706  11972.890188   9298.587238    585.434669                    
V 13   7214.850505   9848.909183 -28804.426833      0.043066                    
P 14   -763.591202  16519.871321  20774.400780    217.680000                    
V 14 -24707.110968   9372.773230  -8540.116642      0.110500                    
P 15  21551.451771  -1509.241778  15113.343600     88.345988                    
V 15  16646.402543  11463.110810 -21663.820736      0.037470                    
P 16 -22033.403753  -3338.207995 -15099.924155   -437.069427                    
V 16  16856.394991  -7640.069501 -22947.915344      0.061640                    
P 17   8507.552371  20294.339211  15220.719170    723.807230                    
V 17 -15520.951776 -10365.216874  23282.520079     -0.000219                    
P 18   4876.044198 -25861.085338  -2746.051206   -452.665855                    
V 18   2099.393855   3777.744276 -31925.476385     -0.116309                    
P 19  15720.631497  20391.876431   7013.236823    386.692716                    
V 19  -8192.771453  -4441.213374  30090.312986      0.052075                    
P 20  17296.442525   4988.375286 -19424.283280    406.176496                    
V 20 -19697.523503  15223.825816 -13784.435678     -0.019387                    
P 21 -15352.261145   2313.262144  21996.362772    146.473214                    
V 21   -410.425130 -26799.083735   3499.337764     -0.008889                    
P 22   6089.716867  14142.487550  22088.009166    100.532353                    
V 22 -25381.633435   9111.399307   1466.984705     -0.071613                    
P 23  10230.293021 -17713.826399  16849.529234     84.631310                    
V 23  19934.897455  -7984.479655 -20683.703843      0.058622                    
P 24  14647.881928  -9003.130859  19749.099371   -349.306560                    
V 24   1425.681383  26157.532362  11078.391812     -0.097303                    
P 25  16600.433902 -17100.964982 -11753.489191    473.316398                    
V 25  14319.506017  -3761.166193  26682.557813      0.018206                    
P 26 -14634.882139  -9209.383283 -20370.278180    222.427723                    
V 26  22009.779928 -13113.596606  -9587.321257     -0.022879                    
P 27 -23137.032574 -12692.070002   4326.636789    -57.024606                    
V 27  -3357.180488  -5205.167381 -30955.647168     -0.057171                    
P 28  -6606.654038 -23011.815252 -11526.295075    -27.905322                    
V 28   3274.849452 -14420.100292  26967.750582     -0.070978                    
P 29   6979.779286 -13485.207119 -21826.833816   -610.110420                    
V 29  21370.201947  17435.052582  -4046.073643     -0.001736                    
P 30   1388.086518  25838.225355   5460.511818   -477.351139                    
V 30  -4378.782000   6446.483703 -30316.729058      0.037492                    
P 31 -11261.175858 -15515.859388 -18396.336986   -224.796495                    
V 31   4523.202339 -22758.965104  17015.643642     -0.004194                    
P 32 -13419.759798 -19719.964750  12077.008431   -574.368767                    
V 32  13516.573693   6815.167046  26342.789858     -0.051783                    
EOF
